#dP2022  8 27 12  0  0.00000000      96 __u+U ITR00 EXT  IAC
## 2224 561600.00000000   900.00000000 59818 0.5000000000000
+  116   C06C07C08C09C10C11C12C13C14C16C19C20C21C22C23C24C25
+        C26C27C28C29C30C32C33C34C35C36C37C38C39C40C41C42C43
+        C44C45C46E01E02E03E04E05E07E08E09E10E11E12E13E14E15
+        E18E19E21E24E25E26E27E30E31E33E34E36G01G02G03G04G05
+        G06G07G08G09G10G11G12G13G14G15G16G17G18G19G20G21G22
+        G23G24G25G26G27G28G29G30G31G32J02J03R01R02R03R04R05
+        R07R08R09R11R12R13R14R15R17R18R19R20R21R24  0  0  0
++        10 11  9 10 11  8  9  8  8  9 10  8  6  7  9  8  7
++         7  8  8 10  8  9  8  8  7  8  8 10 10 10  9  9  8
++         7  8  8  7  8  8  7  6  7  6  8  8  8  8  8  7  7
++         9  7  7  8  7  7  8  8  8  8  8  9  7  7  7 10  6
++         6  8  7  7  7  7  7  9  7  9  7  7  7  7  8  9  7
++         7  7  7  7  8  8  8  7  8  9  8  8  8  9  9  9  9
++         8  9  7  8  7  7  8  9  9  9  8  8  8  9  0  0  0
%c M  cc GPS ccc cccc cccc cccc cccc ccccc ccccc ccccc ccccc
%c cc cc ccc ccc cccc cccc cccc cccc ccccc ccccc ccccc ccccc
%f  0.0000000  0.000000000  0.00000000000  0.000000000000000
%f  0.0000000  0.000000000  0.00000000000  0.000000000000000
%i    0    0    0    0      0      0      0      0         0
%i    0    0    0    0      0      0      0      0         0
/* IAC                                ULTRA-RAPID PREDICTION
/* S/V CLOCKS ARE ALIGNED TO GNSS TIME                      
/* G:C1WC2W R:C1PC2P E:C1XC5X C:C2IC6I J:C1CC2S             
/* PCV:IGS14_2218 OL/AL:FES2004  NONE     YN ORB:CoN CLK:CoN
*  2022 08 28  2  0  0.00000000
PC06 -16111.785018  24983.893288 -29971.528428    707.748901
PC07 -11429.477475  40387.113742  -2769.837890    -61.937066
PC08   1117.712805  27832.769678  31701.231979    454.654353
PC09  -6979.048237  24816.680546 -33084.005890   -881.549357
PC10  -5669.357306  41337.767182   3900.555685    103.713322
PC11  26568.146619  -8392.188040  -1856.554908   -443.433123
PC12  23410.876159   3566.248513  14817.606877   -537.353660
PC13   6828.651105  31513.963192  27444.629809     64.705323
PC14  16270.425991 -12582.204247 -18874.309294    616.375001
PC16 -19914.818943  24003.765602 -28299.859597    141.019405
PC19 -13452.032426  21241.197178  12103.913682   -525.610809
PC20 -16485.842366   3747.504994  22201.783290    310.954686
PC21   9784.888273  17229.518731 -19632.788153   -275.576540
PC22  -2514.416271  27229.129663  -5504.007400   -365.991265
PC23  -4748.514655 -21504.541740  17150.489791   -968.988525
PC24  22821.527857   7480.993091  14230.616549   -970.622439
PC25  11863.977615 -11196.082957  22638.831245   -686.627451
PC26  20279.780644  19176.038330   -923.628125    688.995417
PC27 -16881.829695  -9607.274333 -20060.266002     11.991691
PC28   2421.205554 -16703.169760 -22224.339812      6.287131
PC29 -20875.112706  14903.144498  10980.579623      5.716886
PC30 -26761.217874   3627.998466  -7069.569227    502.489719
PC32  -9880.528870 -17261.430734  19587.281132   -831.941823
PC33  13372.414492 -21277.100117 -12153.810882   -517.861143
PC34  26889.571763  -4368.995602   6002.779026   -326.501069
PC35  -3327.703776  17082.091265  21809.838627    432.306537
PC36 -12565.226035  10448.640387 -22588.917365   -967.777080
PC37 -19154.073519 -20167.186108   2140.948197    -14.943231
PC38  -7195.229259  24443.073708  33634.438096     20.205888
PC39 -24241.283282  24283.344975 -24608.661055     -0.322416
PC40 -17502.583347  37745.890588  -6059.709964     -3.083892
PC41   2735.371560 -27321.226300   5035.872704    -25.299308
PC42  16404.176189  -2512.938827 -22401.276592   -191.506190
PC43  21410.332402 -14610.822616 -10328.244773     11.054338
PC44  17051.273093   9226.622718  20049.799867     31.526973
PC45   5176.485342  21545.385029 -16966.612473    846.155900
PC46 -22380.656615  -5986.621872 -15520.621419   -510.018566
PE01  -3179.933786 -28527.046364   7235.054859   -543.129684
PE02   3327.885079  28562.301820  -7042.534548    321.087345
PE03  -5357.119078  23398.729401 -17315.839228   -593.932123
PE04 -12332.746458 -11753.767798  24209.855682  -1102.909977
PE05 -20301.522485  21538.864996    -72.107179   -149.454613
PE07  23199.263741  -7197.713774 -16921.858947   -700.408795
PE08  12368.736498  11505.662454 -24308.394791   -588.782164
PE09 -23077.183030   7239.441589  17054.396112   -638.170615
PE10 -27951.657277  -8940.631045  -3823.314153   -472.829227
PE11 -28755.368711  -2308.929931   6626.490839   2461.313971
PE12 -22746.854716 -13902.980118 -12879.302170   -138.169031
PE13  28874.679569   2771.473069  -5906.723391    430.409484
PE14  12126.322590 -25650.697553 -15496.390093  -1736.939187
PE15  22648.669309  13880.339591  13064.293847    724.119170
PE18 -10766.574639  18477.743553  10047.452502  -1044.202877
PE19   7825.794413 -23938.167644  15556.985453  -4689.867522
PE21   9430.602345 -18649.711571  20969.854617   -754.348216
PE24 -17788.105751  -3802.698264 -23351.895351   -804.821190
PE25  -9595.019718  18397.782387 -21096.800569   -585.934207
PE26  17342.509037 -10446.121175 -21599.873261  -1545.572739
PE27  17608.810788   2564.041232  23665.885814   -378.472823
PE30  14940.711803  22744.484948  11659.216421   -789.740990
PE31 -15334.464369 -22071.238232 -12389.818316   -502.448737
PE33  -3094.450794 -16736.619962 -24218.965624   -453.636086
PE34   3359.390840  16752.504475  24162.599131     -1.594499
PE36 -18105.918994   9859.560643  21235.689290   -423.031488
PG01 -20573.597507 -14200.225571  -9772.558430    294.171310
PG02   9960.769574  16189.333704  19136.322714   -647.877401
PG03 -12089.133424 -20569.524805  11658.727913   -340.552400
PG04 -11745.912583  -9913.335417  21673.406353   -127.059809
PG05   6229.294214  25743.858493    -33.885798    -94.497903
PG06 -14444.147323   9204.233048  20384.050773    440.899798
PG07 -25777.763997  -5489.435624  -4566.655808    311.826000
PG08  -3844.185548 -16061.971210 -20762.804907    -82.237104
PG09 -19811.439450   1185.518703  17596.365482   -303.146891
PG10  12534.421447  -9966.137973 -20982.549131     -0.732146
PG11  -2225.772619  15287.086941  21605.697067    -12.960460
PG12   9913.264041  22309.701169  10324.609891   -269.154041
PG13  -6317.221490  18755.725586 -17787.207548    376.309112
PG14 -13968.480683   8012.263820 -21097.814063   -107.159768
PG15   6247.530825  16059.938668 -20576.288141    -33.745984
PG16    994.817680 -25697.308123   5316.794016   -522.203546
PG17 -22564.214336  12844.540773  -5295.114814    653.109958
PG18  25471.597271   4839.068522  -6091.130382     67.768239
PG19 -19919.599535  16929.010308   3627.493611    202.975123
PG20  -1297.779325  23324.772888  12854.548127    491.208320
PG21 -14534.428370 -15216.356081 -16008.920237    160.093795
PG22  17508.338129 -18788.872104   6821.010530    317.512230
PG23  15492.134870   1524.088227 -21547.616938    -38.220809
PG24  18162.908575  14729.609732 -13289.430712    154.770467
PG25  15474.758475  11237.065268  18255.271622    365.683457
PG26   5424.795159 -21431.482511  14402.635264    225.829998
PG27   8377.999378 -20530.654620 -14535.885833    216.706194
PG28  -9933.791561  17562.476550 -16886.145755    340.430927
PG29  19424.456526    626.540270  18094.004344   -546.604862
PG30 -22175.444123   3281.863345 -14345.297261   -536.432392
PG31  13265.846967 -10526.270610  20428.361394   -191.247826
PG32  21097.027836 -15577.972368  -3335.961598   -216.262945
PJ02 -20354.689912  24964.941257 -22607.418685     -3.909002
PJ03 -29909.245542  25734.835236  19840.452226     -1.013203
PR01  10905.316436 -22892.777212  -2832.081729     13.838257
PR02    996.780101 -20122.948584  15641.157873    528.142145
PR03  -9443.593905  -5632.052912  23054.629296     62.654582
PR04 -14256.633409  11699.635698  17651.576531    155.474178
PR05 -11497.056080  22644.309035   2540.360667     98.662581
PR07   9717.228579   4962.845644 -23022.890657     40.060288
PR08  14265.894239 -11858.027310 -17441.010992    -66.908664
PR09  11788.400233  21332.381992  -7369.138875     73.562327
PR11  13893.848496   1572.990399  21345.302787     29.154514
PR12   1414.725076 -14783.919749  20766.883416     20.512010
PR13 -10883.110022 -21321.440707   8806.692832    -26.191124
PR14 -17642.293309 -15522.398194  -9930.032615     24.391631
PR15 -13496.475881   -783.716588 -21605.485782     94.004820
PR17 -21499.763434  -3763.791276 -13154.914562    556.185869
PR18 -25030.539487   3855.867496   3232.908647     39.610365
PR19 -16742.226918   8758.433597  17124.896585   -201.559711
PR20   4685.195074   9913.812216  23031.960507    -77.299548
PR21  22413.504823   3127.074597  11802.193099   -329.080312
PR24  -5748.784625 -10117.415481 -22683.305938    111.343734
EOF
